[
    {
        "Altitude(m)": 707307.4201119242,
        "Argument of Periapsis(deg)": 0.009112096949301655,
        "Eccentricity": 0.0,
        "Inclination(deg)": 45.0,
        "Latitude(deg)": 45.144601610870794,
        "Longitude(deg)": -169.12085653180682,
        "Mean Anomaly(deg)": 91.04477331798464,
        "RAAN(deg)": 199.99139844683344,
        "Satellite Name": "Constellation 1 885",
        "Satellite Number": 885,
        "Semi-Major Axis(m)": 7083131.272910544,
        "Time(s)": 152
    },
    {
        "Altitude(m)": 707307.1663775053,
        "Argument of Periapsis(deg)": 0.009172044955547059,
        "Eccentricity": 0.0,
        "Inclination(deg)": 45.0,
        "Latitude(deg)": 45.14344936345417,
        "Longitude(deg)": -169.03910224980248,
        "Mean Anomaly(deg)": 91.10547445823453,
        "RAAN(deg)": 199.9913418576679,
        "Satellite Name": "Constellation 1 885",
        "Satellite Number": 885,
        "Semi-Major Axis(m)": 7083131.272910544,
        "Time(s)": 153
    },
    {
        "Altitude(m)": 707306.898018175,
        "Argument of Periapsis(deg)": 0.009231992961792466,
        "Eccentricity": 0.0,
        "Inclination(deg)": 45.0,
        "Latitude(deg)": 45.14223259387121,
        "Longitude(deg)": -168.9573515215423,
        "Mean Anomaly(deg)": 91.16617559848447,
        "RAAN(deg)": 199.99128526850228,
        "Satellite Name": "Constellation 1 885",
        "Satellite Number": 885,
        "Semi-Major Axis(m)": 7083131.272910544,
        "Time(s)": 154
    },
    {
        "Altitude(m)": 707306.6150355488,
        "Argument of Periapsis(deg)": 0.009291940968037872,
        "Eccentricity": 0.0,
        "Inclination(deg)": 45.0,
        "Latitude(deg)": 45.14095130755624,
        "Longitude(deg)": -168.8756045402677,
        "Mean Anomaly(deg)": 91.22687673873438,
        "RAAN(deg)": 199.99122867933673,
        "Satellite Name": "Constellation 1 885",
        "Satellite Number": 885,
        "Semi-Major Axis(m)": 7083131.272910544,
        "Time(s)": 155
    },
    {
        "Altitude(m)": 707306.3174313058,
        "Argument of Periapsis(deg)": 0.009351888974283276,
        "Eccentricity": 0.0,
        "Inclination(deg)": 45.0,
        "Latitude(deg)": 45.139605510231384,
        "Longitude(deg)": -168.79386166724942,
        "Mean Anomaly(deg)": 91.28757787898422,
        "RAAN(deg)": 199.99117209017115,
        "Satellite Name": "Constellation 1 885",
        "Satellite Number": 885,
        "Semi-Major Axis(m)": 7083131.272910544,
        "Time(s)": 156
    },
    {
        "Altitude(m)": 707306.0052072282,
        "Argument of Periapsis(deg)": 0.00941183698052868,
        "Eccentricity": 0.0,
        "Inclination(deg)": 45.0,
        "Latitude(deg)": 45.1381952079052,
        "Longitude(deg)": -168.71212275939635,
        "Mean Anomaly(deg)": 91.34827901923417,
        "RAAN(deg)": 199.9911155010056,
        "Satellite Name": "Constellation 1 885",
        "Satellite Number": 885,
        "Semi-Major Axis(m)": 7083131.272910544,
        "Time(s)": 157
    },
    {
        "Altitude(m)": 707305.6783651703,
        "Argument of Periapsis(deg)": 0.009471784986774088,
        "Eccentricity": 0.0,
        "Inclination(deg)": 45.0,
        "Latitude(deg)": 45.13672040687446,
        "Longitude(deg)": -168.6303881778343,
        "Mean Anomaly(deg)": 91.40898015948405,
        "RAAN(deg)": 199.99105891184004,
        "Satellite Name": "Constellation 1 885",
        "Satellite Number": 885,
        "Semi-Major Axis(m)": 7083131.272910544,
        "Time(s)": 158
    },
    {
        "Altitude(m)": 707305.3369070844,
        "Argument of Periapsis(deg)": 0.009531732993019492,
        "Eccentricity": 0.0,
        "Inclination(deg)": 45.0,
        "Latitude(deg)": 45.13518111372263,
        "Longitude(deg)": -168.54865811551392,
        "Mean Anomaly(deg)": 91.46968129973392,
        "RAAN(deg)": 199.99100232267443,
        "Satellite Name": "Constellation 1 885",
        "Satellite Number": 885,
        "Semi-Major Axis(m)": 7083131.272910544,
        "Time(s)": 159
    },
    {
        "Altitude(m)": 707304.9808349956,
        "Argument of Periapsis(deg)": 0.009591680999264898,
        "Eccentricity": 0.0,
        "Inclination(deg)": 45.0,
        "Latitude(deg)": 45.133577335320304,
        "Longitude(deg)": -168.46693276530445,
        "Mean Anomaly(deg)": 91.53038243998385,
        "RAAN(deg)": 199.99094573350888,
        "Satellite Name": "Constellation 1 885",
        "Satellite Number": 885,
        "Semi-Major Axis(m)": 7083131.272910544,
        "Time(s)": 160
    },
    {
        "Altitude(m)": 707304.6101510227,
        "Argument of Periapsis(deg)": 0.009651629005510304,
        "Eccentricity": 0.0,
        "Inclination(deg)": 45.0,
        "Latitude(deg)": 45.13190907882477,
        "Longitude(deg)": -168.38521231999098,
        "Mean Anomaly(deg)": 91.59108358023374,
        "RAAN(deg)": 199.99088914434333,
        "Satellite Name": "Constellation 1 885",
        "Satellite Number": 885,
        "Semi-Major Axis(m)": 7083131.272910544,
        "Time(s)": 161
    },
    {
        "Altitude(m)": 707304.2248573638,
        "Argument of Periapsis(deg)": 0.00971157701175571,
        "Eccentricity": 0.0,
        "Inclination(deg)": 45.0,
        "Latitude(deg)": 45.13017635168004,
        "Longitude(deg)": -168.30349697226978,
        "Mean Anomaly(deg)": 91.65178472048366,
        "RAAN(deg)": 199.99083255517775,
        "Satellite Name": "Constellation 1 885",
        "Satellite Number": 885,
        "Semi-Major Axis(m)": 7083131.272910544,
        "Time(s)": 162
    },
    {
        "Altitude(m)": 707303.8249563129,
        "Argument of Periapsis(deg)": 0.009771525018001118,
        "Eccentricity": 0.0,
        "Inclination(deg)": 45.0,
        "Latitude(deg)": 45.128379161616984,
        "Longitude(deg)": -168.22178708284295,
        "Mean Anomaly(deg)": 91.71248586073354,
        "RAAN(deg)": 199.9907759660122,
        "Satellite Name": "Constellation 1 885",
        "Satellite Number": 885,
        "Semi-Major Axis(m)": 7083131.272910544,
        "Time(s)": 163
    },
    {
        "Altitude(m)": 707303.4104502386,
        "Argument of Periapsis(deg)": 0.00983147302424652,
        "Eccentricity": 0.0,
        "Inclination(deg)": 45.0,
        "Latitude(deg)": 45.12651751665184,
        "Longitude(deg)": -168.14008250802624,
        "Mean Anomaly(deg)": 91.77318700098344,
        "RAAN(deg)": 199.99071937684658,
        "Satellite Name": "Constellation 1 885",
        "Satellite Number": 885,
        "Semi-Major Axis(m)": 7083131.272910544,
        "Time(s)": 164
    },
    {
        "Altitude(m)": 707302.9813415959,
        "Argument of Periapsis(deg)": 0.009891421030491928,
        "Eccentricity": 0.0,
        "Inclination(deg)": 45.0,
        "Latitude(deg)": 45.12459142508796,
        "Longitude(deg)": -168.0583836083279,
        "Mean Anomaly(deg)": 91.8338881412334,
        "RAAN(deg)": 199.99066278768103,
        "Satellite Name": "Constellation 1 885",
        "Satellite Number": 885,
        "Semi-Major Axis(m)": 7083131.272910544,
        "Time(s)": 165
    },
    {
        "Altitude(m)": 707302.5376329366,
        "Argument of Periapsis(deg)": 0.009951369036737332,
        "Eccentricity": 0.0,
        "Inclination(deg)": 45.0,
        "Latitude(deg)": 45.12260089551445,
        "Longitude(deg)": -167.97669057605756,
        "Mean Anomaly(deg)": 91.89458928148323,
        "RAAN(deg)": 199.99060619851548,
        "Satellite Name": "Constellation 1 885",
        "Satellite Number": 885,
        "Semi-Major Axis(m)": 7083131.272910544,
        "Time(s)": 166
    },
    {
        "Altitude(m)": 707302.0793268784,
        "Argument of Periapsis(deg)": 0.010011317042982738,
        "Eccentricity": 0.0,
        "Inclination(deg)": 45.0,
        "Latitude(deg)": 45.120545936806124,
        "Longitude(deg)": -167.89500360341904,
        "Mean Anomaly(deg)": 91.95529042173314,
        "RAAN(deg)": 199.9905496093499,
        "Satellite Name": "Constellation 1 885",
        "Satellite Number": 885,
        "Semi-Major Axis(m)": 7083131.272910544,
        "Time(s)": 167
    },
    {
        "Altitude(m)": 707301.6064261462,
        "Argument of Periapsis(deg)": 0.010071265049228144,
        "Eccentricity": 0.0,
        "Inclination(deg)": 45.0,
        "Latitude(deg)": 45.118426558123545,
        "Longitude(deg)": -167.81332288250772,
        "Mean Anomaly(deg)": 92.01599156198307,
        "RAAN(deg)": 199.99049302018435,
        "Satellite Name": "Constellation 1 885",
        "Satellite Number": 885,
        "Semi-Major Axis(m)": 7083131.272910544,
        "Time(s)": 168
    },
    {
        "Altitude(m)": 707301.1189335345,
        "Argument of Periapsis(deg)": 0.01013121305547355,
        "Eccentricity": 0.0,
        "Inclination(deg)": 45.0,
        "Latitude(deg)": 45.116242768912635,
        "Longitude(deg)": -167.7316486053065,
        "Mean Anomaly(deg)": 92.07669270223296,
        "RAAN(deg)": 199.9904364310188,
        "Satellite Name": "Constellation 1 885",
        "Satellite Number": 885,
        "Semi-Major Axis(m)": 7083131.272910544,
        "Time(s)": 169
    },
    {
        "Altitude(m)": 707300.6168519243,
        "Argument of Periapsis(deg)": 0.010191161061718957,
        "Eccentricity": 0.0,
        "Inclination(deg)": 45.0,
        "Latitude(deg)": 45.113994578904574,
        "Longitude(deg)": -167.64998096368294,
        "Mean Anomaly(deg)": 92.13739384248282,
        "RAAN(deg)": 199.99037984185318,
        "Satellite Name": "Constellation 1 885",
        "Satellite Number": 885,
        "Semi-Major Axis(m)": 7083131.272910544,
        "Time(s)": 170
    }
]